HAWK-2B                 
1 47508U 21006CZ  26068.67629241  .00009474  00000+0  29651-3 0  9991
2 47508  97.2334 114.1140 0007102 185.9063 174.2098 15.33301353284246
STARLINK-34477          
1 64487U 25133R   26068.54450301  .00044675  00000+0  15112-2 0  9994
2 64487  53.1576 117.6490 0001100  82.7412 277.3713 15.30205457 41155
